{"type": "FeatureCollection", "metadata": {"source": "fallback_approx", "generated_at": "2026-09-23T09:22:50+00:00", "attribution": "Схематичные полигоны (не официальные границы)", "note": "Запасной вариант: приблизительное расположение районов для демо."}, "features": [{"type": "Feature", "id": "esil", "properties": {"id": "esil", "name": "Есиль", "name_full": "район Есиль", "source": "fallback_approx", "osm_id": null, "osm_names": {}, "area_km2": 81.7, "center_lon": 71.43062, "center_lat": 51.11946}, "geometry": {"type": "Polygon", "coordinates": [[[71.36, 51.17], [71.36, 51.085], [71.52, 51.085], [71.52, 51.1325], [71.49, 51.135], [71.45, 51.145], [71.42, 51.16], [71.39, 51.168], [71.36, 51.17]]]}}, {"type": "Feature", "id": "almaty", "properties": {"id": "almaty", "name": "Алматы", "name_full": "район Алматы", "source": "fallback_approx", "osm_id": null, "osm_names": {}, "area_km2": 167.8, "center_lon": 71.57438, "center_lat": 51.16074}, "geometry": {"type": "Polygon", "coordinates": [[[71.49, 51.135], [71.52, 51.1325], [71.52, 51.085], [71.65, 51.085], [71.65, 51.23], [71.49, 51.23], [71.49, 51.135]]]}}, {"type": "Feature", "id": "saryarka", "properties": {"id": "saryarka", "name": "Сарыарка", "name_full": "район Сарыарка", "source": "fallback_approx", "osm_id": null, "osm_names": {}, "area_km2": 87.2, "center_lon": 71.33191, "center_lat": 51.19647}, "geometry": {"type": "Polygon", "coordinates": [[[71.25, 51.15], [71.34, 51.17], [71.36, 51.17], [71.39, 51.168], [71.42, 51.16], [71.42, 51.23], [71.25, 51.23], [71.25, 51.15]]]}}, {"type": "Feature", "id": "baikonur", "properties": {"id": "baikonur", "name": "Байконур", "name_full": "район Байконур", "source": "fallback_approx", "osm_id": null, "osm_names": {}, "area_km2": 45.7, "center_lon": 71.45668, "center_lat": 51.18738}, "geometry": {"type": "Polygon", "coordinates": [[[71.42, 51.16], [71.45, 51.145], [71.49, 51.135], [71.49, 51.23], [71.42, 51.23], [71.42, 51.16]]]}}, {"type": "Feature", "id": "nura", "properties": {"id": "nura", "name": "Нура", "name_full": "район Нура", "source": "fallback_approx", "osm_id": null, "osm_names": {}, "area_km2": 266.5, "center_lon": 71.41509, "center_lat": 51.06996}, "geometry": {"type": "Polygon", "coordinates": [[[71.25, 51.15], [71.25, 51.02], [71.65, 51.02], [71.65, 51.085], [71.52, 51.085], [71.36, 51.085], [71.36, 51.17], [71.34, 51.17], [71.25, 51.15]]]}}]}